{
    "links": {
        "self": "http://www.neowsapp.com/rest/v1/neo/3394780?api_key=iIulBulltgU6a56xZRHN4H3l9WmuAYTsLGpBGhQ2"
    },
    "id": "3394780",
    "neo_reference_id": "3394780",
    "name": "(2007 WC)",
    "designation": "2007 WC",
    "nasa_jpl_url": "http://ssd.jpl.nasa.gov/sbdb.cgi?sstr=3394780",
    "absolute_magnitude_h": 25.8,
    "estimated_diameter": {
        "kilometers": {
            "estimated_diameter_min": 0.0183888672,
            "estimated_diameter_max": 0.0411187571
        },
        "meters": {
            "estimated_diameter_min": 18.388867207,
            "estimated_diameter_max": 41.1187571041
        },
        "miles": {
            "estimated_diameter_min": 0.0114263088,
            "estimated_diameter_max": 0.0255500032
        },
        "feet": {
            "estimated_diameter_min": 60.3309310875,
            "estimated_diameter_max": 134.9040630575
        }
    },
    "is_potentially_hazardous_asteroid": false,
    "close_approach_data": [
        {
            "close_approach_date": "2007-11-12",
            "close_approach_date_full": "2007-Nov-12 16:32",
            "epoch_date_close_approach": 1194885120000,
            "relative_velocity": {
                "kilometers_per_second": "6.4633985325",
                "kilometers_per_hour": "23268.2347169634",
                "miles_per_hour": "14457.9761773265"
            },
            "miss_distance": {
                "astronomical": "0.0384008126",
                "lunar": "14.9379161014",
                "kilometers": "5744679.771229162",
                "miles": "3569578.4862879556"
            },
            "orbiting_body": "Earth"
        }
    ],
    "orbital_data": {
        "orbit_id": "7",
        "orbit_determination_date": "2017-04-06 09:05:05",
        "first_observation_date": "2007-11-16",
        "last_observation_date": "2007-11-17",
        "data_arc_in_days": 1,
        "observations_used": 15,
        "orbit_uncertainty": "9",
        "minimum_orbit_intersection": ".0383821",
        "jupiter_tisserand_invariant": "3.398",
        "epoch_osculation": "2454421.5",
        "eccentricity": ".5475000552388511",
        "semi_major_axis": "2.26904405490613",
        "inclination": ".6547553609453228",
        "ascending_node_longitude": "104.5827233429712",
        "orbital_period": "1248.426040721141",
        "perihelion_distance": "1.026742309505637",
        "perihelion_argument": "307.5890380781713",
        "aphelion_distance": "3.511345800306623",
        "perihelion_time": "2454419.144984734281",
        "mean_anomaly": ".6790994964900874",
        "mean_motion": ".2883630974182896",
        "equinox": "J2000",
        "orbit_class": {
            "orbit_class_type": "AMO",
            "orbit_class_description": "Near-Earth asteroid orbits similar to that of 1221 Amor",
            "orbit_class_range": "1.017 AU < q (perihelion) < 1.3 AU"
        }
    },
    "is_sentry_object": false
}